{"type": "FeatureCollection", "features": [ {"type": "Feature", "properties": {"norad_id": 45358, "name": "COSMOS 2545 (760)", "group": "gnss", "lat": 11.351878121095622, "lon": -35.34866745230063, "alt_km": 19145.9871088725, "timestamp": "2025-12-07T07:31:36.542844+00:00", "meta": {"OBJECT_NAME": "COSMOS 2545 (760)", "OBJECT_ID": "2020-018A", "EPOCH": "2025-12-01T04:43:25.038912", "MEAN_MOTION": 2.13102323, "ECCENTRICITY": 0.00119194, "INCLINATION": 64.4762, "RA_OF_ASC_NODE": 319.3749, "ARG_OF_PERICENTER": 248.338, "MEAN_ANOMALY": 111.5456, "EPHEMERIS_TYPE": 0, "CLASSIFICATION_TYPE": "U", "NORAD_CAT_ID": 45358, "ELEMENT_SET_NO": 999, "REV_AT_EPOCH": 4444, "BSTAR": 0, "MEAN_MOTION_DOT": -2.8e-07, "MEAN_MOTION_DDOT": 0}, "tle": {"line1": "1 45358U 20018A   25335.19681758 -.00000028  00000+0  00000+0 0  9998", "line2": "2 45358  64.4762 319.3749 0011919 248.3380 111.5456  2.13102323 44447"}}, "geometry": {"type": "Point", "coordinates": [-35.34866745230063, 11.351878121095622]}}, {"type": "Feature", "properties": {"norad_id": 45807, "name": "BEIDOU-3 G3 (C61)", "group": "gnss", "lat": -1.5974378765282193, "lon": -60.36084492160673, "alt_km": 35777.888130355095, "timestamp": "2025-12-07T07:31:36.542856+00:00", "meta": {"OBJECT_NAME": "BEIDOU-3 G3 (C61)", "OBJECT_ID": "2020-040A", "EPOCH": "2025-12-06T21:02:21.814368", "MEAN_MOTION": 1.00276517, "ECCENTRICITY": 0.00059233, "INCLINATION": 1.9764, "RA_OF_ASC_NODE": 66.5673, "ARG_OF_PERICENTER": 306.2061, "MEAN_ANOMALY": 129.2028, "EPHEMERIS_TYPE": 0, "CLASSIFICATION_TYPE": "U", "NORAD_CAT_ID": 45807, "ELEMENT_SET_NO": 999, "REV_AT_EPOCH": 2014, "BSTAR": 0, "MEAN_MOTION_DOT": -3.49e-06, "MEAN_MOTION_DDOT": 0}, "tle": {"line1": "1 45807U 20040A   25340.87664137 -.00000349  00000+0  00000+0 0  9991", "line2": "2 45807   1.9764  66.5673 0005923 306.2061 129.2028  1.00276517 20143"}}, "geometry": {"type": "Point", "coordinates": [-60.36084492160673, -1.5974378765282193]}}, {"type": "Feature", "properties": {"norad_id": 45854, "name": "GPS BIII-3  (PRN 23)", "group": "gnss", "lat": 21.85022747048079, "lon": 51.778009264747276, "alt_km": 20340.01297769233, "timestamp": "2025-12-07T07:31:36.542867+00:00", "meta": {"OBJECT_NAME": "GPS BIII-3  (PRN 23)", "OBJECT_ID": "2020-041A", "EPOCH": "2025-12-06T06:48:20.878272", "MEAN_MOTION": 2.00561679, "ECCENTRICITY": 0.00603304, "INCLINATION": 56.5425, "RA_OF_ASC_NODE": 36.4371, "ARG_OF_PERICENTER": 203.1563, "MEAN_ANOMALY": 159.699, "EPHEMERIS_TYPE": 0, "CLASSIFICATION_TYPE": "U", "NORAD_CAT_ID": 45854, "ELEMENT_SET_NO": 999, "REV_AT_EPOCH": 4017, "BSTAR": 0, "MEAN_MOTION_DOT": -7e-07, "MEAN_MOTION_DDOT": 0}, "tle": {"line1": "1 45854U 20041A   25340.28357498 -.00000070  00000+0  00000+0 0  9999", "line2": "2 45854  56.5425  36.4371 0060330 203.1563 159.6990  2.00561679 40178"}}, "geometry": {"type": "Point", "coordinates": [51.778009264747276, 21.85022747048079]}}, {"type": "Feature", "properties": {"norad_id": 46114, "name": "GALAXY 30 (WAAS/PRN 135)", "group": "gnss", "lat": 0.0360581290974082, "lon": 64.23399026018627, "alt_km": 35796.74207221574, "timestamp": "2025-12-07T07:31:36.542879+00:00", "meta": {"OBJECT_NAME": "GALAXY 30 (WAAS/PRN 135)", "OBJECT_ID": "2020-056C", "EPOCH": "2025-12-06T16:29:46.461984", "MEAN_MOTION": 1.0027044, "ECCENTRICITY": 0.00024765, "INCLINATION": 0.0131, "RA_OF_ASC_NODE": 322.415, "ARG_OF_PERICENTER": 291.9013, "MEAN_ANOMALY": 303.8481, "EPHEMERIS_TYPE": 0, "CLASSIFICATION_TYPE": "U", "NORAD_CAT_ID": 46114, "ELEMENT_SET_NO": 999, "REV_AT_EPOCH": 1936, "BSTAR": 0, "MEAN_MOTION_DOT": 4.3e-07, "MEAN_MOTION_DDOT": 0}, "tle": {"line1": "1 46114U 20056C   25340.68734331  .00000043  00000+0  00000+0 0  9993", "line2": "2 46114   0.0131 322.4150 0002476 291.9013 303.8481  1.00270440 19368"}}, "geometry": {"type": "Point", "coordinates": [64.23399026018627, 0.0360581290974082]}}, {"type": "Feature", "properties": {"norad_id": 46805, "name": "COSMOS 2547 (705K)", "group": "gnss", "lat": -42.43607462291555, "lon": 44.636425885978184, "alt_km": 19119.261797788393, "timestamp": "2025-12-07T07:31:36.542890+00:00", "meta": {"OBJECT_NAME": "COSMOS 2547 (705K)", "OBJECT_ID": "2020-075A", "EPOCH": "2025-12-04T04:48:34.576416", "MEAN_MOTION": 2.13099889, "ECCENTRICITY": 0.0006264, "INCLINATION": 64.5958, "RA_OF_ASC_NODE": 198.9817, "ARG_OF_PERICENTER": 229.2044, "MEAN_ANOMALY": 130.8379, "EPHEMERIS_TYPE": 0, "CLASSIFICATION_TYPE": "U", "NORAD_CAT_ID": 46805, "ELEMENT_SET_NO": 999, "REV_AT_EPOCH": 3975, "BSTAR": 0, "MEAN_MOTION_DOT": 1.01e-06, "MEAN_MOTION_DDOT": 0}, "tle": {"line1": "1 46805U 20075A   25338.20040019  .00000101  00000+0  00000+0 0  9994", "line2": "2 46805  64.5958 198.9817 0006264 229.2044 130.8379  2.13099889 39750"}}, "geometry": {"type": "Point", "coordinates": [44.636425885978184, -42.43607462291555]}}, {"type": "Feature", "properties": {"norad_id": 46826, "name": "GPS BIII-4  (PRN 14)", "group": "gnss", "lat": -1.8904535605726929, "lon": -142.802422112806, "alt_km": 20334.847051816563, "timestamp": "2025-12-07T07:31:36.542901+00:00", "meta": {"OBJECT_NAME": "GPS BIII-4  (PRN 14)", "OBJECT_ID": "2020-078A", "EPOCH": "2025-11-12T03:01:29.191584", "MEAN_MOTION": 2.00567032, "ECCENTRICITY": 0.00639112, "INCLINATION": 54.0223, "RA_OF_ASC_NODE": 219.5836, "ARG_OF_PERICENTER": 203.4986, "MEAN_ANOMALY": 326.7753, "EPHEMERIS_TYPE": 0, "CLASSIFICATION_TYPE": "U", "NORAD_CAT_ID": 46826, "ELEMENT_SET_NO": 999, "REV_AT_EPOCH": 3715, "BSTAR": 0, "MEAN_MOTION_DOT": -3.4e-07, "MEAN_MOTION_DDOT": 0}, "tle": {"line1": "1 46826U 20078A   25316.12603231 -.00000034  00000+0  00000+0 0  9994", "line2": "2 46826  54.0223 219.5836 0063911 203.4986 326.7753  2.00567032 37154"}}, "geometry": {"type": "Point", "coordinates": [-142.802422112806, -1.8904535605726929]}}, {"type": "Feature", "properties": {"norad_id": 48859, "name": "GPS BIII-5  (PRN 11)", "group": "gnss", "lat": -2.3650720101052536, "lon": 161.81023322534193, "alt_km": 20141.784132603978, "timestamp": "2025-12-07T07:31:36.542914+00:00", "meta": {"OBJECT_NAME": "GPS BIII-5  (PRN 11)", "OBJECT_ID": "2021-054A", "EPOCH": "2025-11-30T17:12:22.002912", "MEAN_MOTION": 2.00553932, "ECCENTRICITY": 0.0024653, "INCLINATION": 55.2606, "RA_OF_ASC_NODE": 340.4377, "ARG_OF_PERICENTER": 232.9477, "MEAN_ANOMALY": 227.2059, "EPHEMERIS_TYPE": 0, "CLASSIFICATION_TYPE": "U", "NORAD_CAT_ID": 48859, "ELEMENT_SET_NO": 999, "REV_AT_EPOCH": 3277, "BSTAR": 0, "MEAN_MOTION_DOT": -5.5e-07, "MEAN_MOTION_DDOT": 0}, "tle": {"line1": "1 48859U 21054A   25334.71692133 -.00000055  00000+0  00000+0 0  9994", "line2": "2 48859  55.2606 340.4377 0024653 232.9477 227.2059  2.00553932 32777"}}, "geometry": {"type": "Point", "coordinates": [161.81023322534193, -2.3650720101052536]}}, {"type": "Feature", "properties": {"norad_id": 49336, "name": "QZS-1R (QZSS/PRN 196)", "group": "gnss", "lat": -30.52960220858178, "lon": -46.32815608927355, "alt_km": 33093.95545781965, "timestamp": "2025-12-07T07:31:36.542926+00:00", "meta": {"OBJECT_NAME": "QZS-1R (QZSS/PRN 196)", "OBJECT_ID": "2021-096A", "EPOCH": "2025-12-05T14:57:38.876832", "MEAN_MOTION": 1.00259301, "ECCENTRICITY": 0.07539341, "INCLINATION": 37.062, "RA_OF_ASC_NODE": 82.4658, "ARG_OF_PERICENTER": 271.1853, "MEAN_ANOMALY": 80.5969, "EPHEMERIS_TYPE": 0, "CLASSIFICATION_TYPE": "U", "NORAD_CAT_ID": 49336, "ELEMENT_SET_NO": 999, "REV_AT_EPOCH": 1507, "BSTAR": 0, "MEAN_MOTION_DOT": -2.6e-06, "MEAN_MOTION_DDOT": 0}, "tle": {"line1": "1 49336U 21096A   25339.62336663 -.00000260  00000+0  00000+0 0  9997", "line2": "2 49336  37.0620  82.4658 0753934 271.1853  80.5969  1.00259301 15077"}}, "geometry": {"type": "Point", "coordinates": [-46.32815608927355, -30.52960220858178]}}, {"type": "Feature", "properties": {"norad_id": 49809, "name": "GSAT0223 (GALILEO 27)", "group": "gnss", "lat": 56.52141895437293, "lon": 63.893003321123764, "alt_km": 23229.256344536447, "timestamp": "2025-12-07T07:31:36.542937+00:00", "meta": {"OBJECT_NAME": "GSAT0223 (GALILEO 27)", "OBJECT_ID": "2021-116A", "EPOCH": "2025-12-06T21:09:43.608672", "MEAN_MOTION": 1.70475531, "ECCENTRICITY": 0.00047238, "INCLINATION": 57.2205, "RA_OF_ASC_NODE": 346.871, "ARG_OF_PERICENTER": 250.5355, "MEAN_ANOMALY": 287.3218, "EPHEMERIS_TYPE": 0, "CLASSIFICATION_TYPE": "U", "NORAD_CAT_ID": 49809, "ELEMENT_SET_NO": 999, "REV_AT_EPOCH": 2490, "BSTAR": 0, "MEAN_MOTION_DOT": -8.2e-07, "MEAN_MOTION_DDOT": 0}, "tle": {"line1": "1 49809U 21116A   25340.88175473 -.00000082  00000+0  00000+0 0  9997", "line2": "2 49809  57.2205 346.8710 0004723 250.5355 287.3218  1.70475531 24902"}}, "geometry": {"type": "Point", "coordinates": [63.893003321123764, 56.52141895437293]}}, {"type": "Feature", "properties": {"norad_id": 49810, "name": "GSAT0224 (GALILEO 28)", "group": "gnss", "lat": -12.964262386824178, "lon": 175.38996578851254, "alt_km": 23217.66574610871, "timestamp": "2025-12-07T07:31:36.542949+00:00", "meta": {"OBJECT_NAME": "GSAT0224 (GALILEO 28)", "OBJECT_ID": "2021-116B", "EPOCH": "2025-12-04T15:38:46.077216", "MEAN_MOTION": 1.70475512, "ECCENTRICITY": 0.00040562, "INCLINATION": 57.2223, "RA_OF_ASC_NODE": 346.9305, "ARG_OF_PERICENTER": 253.8254, "MEAN_ANOMALY": 108.1284, "EPHEMERIS_TYPE": 0, "CLASSIFICATION_TYPE": "U", "NORAD_CAT_ID": 49810, "ELEMENT_SET_NO": 999, "REV_AT_EPOCH": 2489, "BSTAR": 0, "MEAN_MOTION_DOT": -7.3e-07, "MEAN_MOTION_DDOT": 0}, "tle": {"line1": "1 49810U 21116B   25338.65192219 -.00000073  00000+0  00000+0 0  9998", "line2": "2 49810  57.2223 346.9305 0004056 253.8254 108.1284  1.70475512 24898"}}, "geometry": {"type": "Point", "coordinates": [175.38996578851254, -12.964262386824178]}}]}